CZ-2C R/B               
1 54039U 22132E   25364.55633595  .00041733  00000+0  59447-3 0  9991
2 54039  97.2947   1.1102 0019879 355.2026   4.9035 15.55987179179604
GSLV R/B                
1 54149U 22138AN  25364.57953807  .00004540  00000+0  39793-3 0  9999
2 54149  87.3820 189.4983 0023565  47.0822 313.2382 14.96231114173598
XRISM                   
1 57800U 23137A   25364.34652408  .00009541  00000+0  55822-3 0  9991
2 57800  31.0036  11.8538 0007563  63.7685 296.3730 15.10546077127294
ACS3                    
1 59588U 24077B   25364.80273979  .00035608  00000+0  30009-1 0  9994
2 59588  97.2546 316.3727 0071762 293.2280  66.1337 13.86422535 84645
SZ-21 MODULE            
1 66515U 25246C   25364.43071403  .00036786  00000+0  38781-3 0  9993
2 66515  41.4763 268.0522 0003216 359.0458   1.0376 15.63504486  7210
