CCSDS_OMM_VERS = 2.0
CREATION_DATE  = 
ORIGINATOR     = 

OBJECT_NAME    = CZ-2C R/B
OBJECT_ID      = 2022-132E
CENTER_NAME    = EARTH
REF_FRAME      = TEME
TIME_SYSTEM    = UTC
MEAN_ELEMENT_THEORY = SGP/SGP4

EPOCH          = 2025-12-30T13:21:07.426080
MEAN_MOTION    = 15.55987179
ECCENTRICITY   = .0019879
INCLINATION    = 97.2947
RA_OF_ASC_NODE = 1.1102
ARG_OF_PERICENTER = 355.2026
MEAN_ANOMALY   = 4.9035

EPHEMERIS_TYPE = 0
CLASSIFICATION_TYPE = U
NORAD_CAT_ID   = 54039
ELEMENT_SET_NO = 999
REV_AT_EPOCH   = 17960
BSTAR          = .59447E-3
MEAN_MOTION_DOT = .41733E-3
MEAN_MOTION_DDOT = 0

CCSDS_OMM_VERS = 2.0
CREATION_DATE  = 
ORIGINATOR     = 

OBJECT_NAME    = GSLV R/B
OBJECT_ID      = 2022-138AN
CENTER_NAME    = EARTH
REF_FRAME      = TEME
TIME_SYSTEM    = UTC
MEAN_ELEMENT_THEORY = SGP/SGP4

EPOCH          = 2025-12-30T13:54:32.089248
MEAN_MOTION    = 14.96231114
ECCENTRICITY   = .0023565
INCLINATION    = 87.3820
RA_OF_ASC_NODE = 189.4983
ARG_OF_PERICENTER = 47.0822
MEAN_ANOMALY   = 313.2382

EPHEMERIS_TYPE = 0
CLASSIFICATION_TYPE = U
NORAD_CAT_ID   = 54149
ELEMENT_SET_NO = 999
REV_AT_EPOCH   = 17359
BSTAR          = .39793E-3
MEAN_MOTION_DOT = .454E-4
MEAN_MOTION_DDOT = 0

CCSDS_OMM_VERS = 2.0
CREATION_DATE  = 
ORIGINATOR     = 

OBJECT_NAME    = XRISM
OBJECT_ID      = 2023-137A
CENTER_NAME    = EARTH
REF_FRAME      = TEME
TIME_SYSTEM    = UTC
MEAN_ELEMENT_THEORY = SGP/SGP4

EPOCH          = 2025-12-30T08:18:59.680512
MEAN_MOTION    = 15.10546077
ECCENTRICITY   = .00075639
INCLINATION    = 31.0036
RA_OF_ASC_NODE = 11.8538
ARG_OF_PERICENTER = 63.7685
MEAN_ANOMALY   = 296.3730

EPHEMERIS_TYPE = 0
CLASSIFICATION_TYPE = U
NORAD_CAT_ID   = 57800
ELEMENT_SET_NO = 999
REV_AT_EPOCH   = 12729
BSTAR          = .55822497E-3
MEAN_MOTION_DOT = .9541E-4
MEAN_MOTION_DDOT = 0

CCSDS_OMM_VERS = 2.0
CREATION_DATE  = 
ORIGINATOR     = 

OBJECT_NAME    = ACS3
OBJECT_ID      = 2024-077B
CENTER_NAME    = EARTH
REF_FRAME      = TEME
TIME_SYSTEM    = UTC
MEAN_ELEMENT_THEORY = SGP/SGP4

EPOCH          = 2025-12-30T19:15:56.717856
MEAN_MOTION    = 13.86422535
ECCENTRICITY   = .0071762
INCLINATION    = 97.2546
RA_OF_ASC_NODE = 316.3727
ARG_OF_PERICENTER = 293.2280
MEAN_ANOMALY   = 66.1337

EPHEMERIS_TYPE = 0
CLASSIFICATION_TYPE = U
NORAD_CAT_ID   = 59588
ELEMENT_SET_NO = 999
REV_AT_EPOCH   = 8464
BSTAR          = .30009E-1
MEAN_MOTION_DOT = .35608E-3
MEAN_MOTION_DDOT = 0

CCSDS_OMM_VERS = 2.0
CREATION_DATE  = 
ORIGINATOR     = 

OBJECT_NAME    = SZ-21 MODULE
OBJECT_ID      = 2025-246C
CENTER_NAME    = EARTH
REF_FRAME      = TEME
TIME_SYSTEM    = UTC
MEAN_ELEMENT_THEORY = SGP/SGP4

EPOCH          = 2025-12-30T10:20:13.692192
MEAN_MOTION    = 15.63504486
ECCENTRICITY   = .00032163
INCLINATION    = 41.4763
RA_OF_ASC_NODE = 268.0522
ARG_OF_PERICENTER = 359.0458
MEAN_ANOMALY   = 1.0376

EPHEMERIS_TYPE = 0
CLASSIFICATION_TYPE = U
NORAD_CAT_ID   = 66515
ELEMENT_SET_NO = 999
REV_AT_EPOCH   = 721
BSTAR          = .38780825E-3
MEAN_MOTION_DOT = .36786E-3
MEAN_MOTION_DDOT = 0

